NORAD_CAT_ID,OBJECT_NAME,OBJECT_TYPE,EPOCH,MEAN_MOTION,ECCENTRICITY,INCLINATION,RA_OF_ASC_NODE,ARG_OF_PERICENTER,MEAN_ANOMALY,BSTAR,MEAN_MOTION_DOT,MEAN_MOTION_DDOT,TLE_LINE0,TLE_LINE1,TLE_LINE2,SEMIMAJOR_AXIS,PERIOD,APOGEE,PERIGEE,DECAYED
53818.0,STARLINK-4749,PAYLOAD,2023-03-14 12:53:50,15.11376737,0.0003705,53.217,162.5576,30.1002,330.0204,0.0041465,0.00071192,0.0,0 STARLINK-4749,1 53818U 22114A   23073.53738780  .00071192  00000-0  41465-2 0  9993,2 53818  53.2170 162.5576 0003705  30.1002 330.0204 15.11376737 28203,6910.137,95.277,534.563,529.442,0.0
53818.0,STARLINK-4749,PAYLOAD,2023-03-15 04:46:03,15.11473804,0.0003865,53.2163,159.5778,29.753,330.3682,0.0042589,0.00073351,0.0,0 STARLINK-4749,1 53818U 22114A   23074.19865375  .00073351  00000-0  42589-2 0  9994,2 53818  53.2163 159.5778 0003865  29.7530 330.3682 15.11473804 27667,6909.842,95.271,534.377,529.036,0.0
53818.0,STARLINK-4749,PAYLOAD,2023-03-15 12:42:08,15.11528441,0.0003856,53.2164,158.087,31.1464,328.9757,0.0044104,0.00076115,0.0,0 STARLINK-4749,1 53818U 22114A   23074.52926947  .00076115  00000-0  44104-2 0  9990,2 53818  53.2164 158.0870 0003856  31.1464 328.9757 15.11528441 28359,6909.675,95.268,534.204,528.876,0.0
53818.0,STARLINK-4749,PAYLOAD,2023-03-16 06:09:29,15.1163635,0.0004038,53.216,154.8085,32.5642,327.56,0.0044076,0.00076299,0.0,0 STARLINK-4749,1 53818U 22114A   23075.25658634  .00076299  00000-0  44076-2 0  9997,2 53818  53.2160 154.8085 0004038  32.5642 327.5600 15.11636350 27825,6909.346,95.261,534.001,528.421,0.0
53818.0,STARLINK-4749,PAYLOAD,2023-03-16 10:55:06,15.11654276,0.0004021,53.2161,153.9139,33.2971,326.8274,0.0030751,0.00052995,0.0,0 STARLINK-4749,1 53818U 22114A   23075.45493718  .00052995  00000-0  30751-2 0  9991,2 53818  53.2161 153.9139 0004021  33.2971 326.8274 15.11654276 27850,6909.292,95.26,533.935,528.378,0.0
53818.0,STARLINK-4749,PAYLOAD,2023-03-16 22:01:33,15.11697778,0.0004126,53.2159,151.8274,34.4621,325.664,0.0028601,0.00049304,0.0,0 STARLINK-4749,1 53818U 22114A   23075.91774655  .00049304  00000-0  28601-2 0  9995,2 53818  53.2159 151.8274 0004126  34.4621 325.6640 15.11697778 28562,6909.159,95.257,533.875,528.173,0.0
53818.0,STARLINK-4749,PAYLOAD,2023-03-17 10:43:10,15.1174601,0.0004159,53.2158,149.4419,35.3553,324.7715,0.0026155,0.00045096,0.0,0 STARLINK-4749,1 53818U 22114A   23076.44665474  .00045096  00000-0  26155-2 0  9998,2 53818  53.2158 149.4419 0004159  35.3553 324.7715 15.11746010 28001,6909.012,95.254,533.751,528.004,0.0
53818.0,STARLINK-4749,PAYLOAD,2023-03-18 12:06:22,15.11835795,0.0004291,53.216,144.6719,37.8018,322.3276,0.0024631,0.00042543,0.0,0 STARLINK-4749,1 53818U 22114A   23077.50442376  .00042543  00000-0  24631-2 0  9991,2 53818  53.2160 144.6719 0004291  37.8018 322.3276 15.11835795 28166,6908.739,95.248,533.568,527.639,0.0
53818.0,STARLINK-4749,PAYLOAD,2023-03-18 21:37:32,15.11867268,0.0004349,53.2157,142.8831,38.6976,321.4328,0.002286,0.00039481,0.0,0 STARLINK-4749,1 53818U 22114A   23077.90107102  .00039481  00000-0  22860-2 0  9999,2 53818  53.2157 142.8831 0004349  38.6976 321.4328 15.11867268 28868,6908.643,95.246,533.512,527.503,0.0
53818.0,STARLINK-4749,PAYLOAD,2023-03-19 10:19:05,15.1190999,0.0004437,53.2159,140.4979,40.0891,320.0429,0.0022226,0.00038418,0.0,0 STARLINK-4749,1 53818U 22114A   23078.42992083  .00038418  00000-0  22226-2 0  9992,2 53818  53.2159 140.4979 0004437  40.0891 320.0429 15.11909990 28943,6908.513,95.244,533.443,527.312,0.0
53818.0,STARLINK-4749,PAYLOAD,2023-03-19 21:25:25,15.11948676,0.0004484,53.2157,138.4104,41.0846,319.0484,0.0022735,0.00039352,0.0,0 STARLINK-4749,1 53818U 22114A   23078.89265186  .00039352  00000-0  22735-2 0  9993,2 53818  53.2157 138.4104 0004484  41.0846 319.0484 15.11948676 29013,6908.395,95.241,533.357,527.162,0.0
53818.0,STARLINK-4749,PAYLOAD,2023-03-20 03:46:10,15.11972713,0.0004538,53.2156,137.2176,41.9454,318.1886,0.0023995,0.00041591,0.0,0 STARLINK-4749,1 53818U 22114A   23079.15706433  .00041591  00000-0  23995-2 0  9995,2 53818  53.2156 137.2176 0004538  41.9454 318.1886 15.11972713 28410,6908.321,95.24,533.321,527.051,0.0
53818.0,STARLINK-4749,PAYLOAD,2023-03-20 10:06:55,15.1199185,0.0004595,53.2158,136.0248,42.6011,317.5338,0.0023255,0.00040314,0.0,0 STARLINK-4749,1 53818U 22114A   23079.42147357  .00040314  00000-0  23255-2 0  9990,2 53818  53.2158 136.0248 0004595  42.6011 317.5338 15.11991850 29092,6908.263,95.239,533.303,526.954,0.0
53818.0,STARLINK-4749,PAYLOAD,2023-03-21 08:19:30,15.12065533,0.0004704,53.2158,131.8495,45.2164,314.9211,0.002279,0.00039579,0.0,0 STARLINK-4749,1 53818U 22114A   23080.34687601  .00039579  00000-0  22790-2 0  9998,2 53818  53.2158 131.8495 0004704  45.2164 314.9211 15.12065533 28595,6908.039,95.234,533.153,526.654,0.0
53818.0,STARLINK-4749,PAYLOAD,2023-03-21 09:54:41,15.12068949,0.0004715,53.2158,131.5514,44.9977,315.1398,0.002185,0.00037929,0.0,0 STARLINK-4749,1 53818U 22114A   23080.41297468  .00037929  00000-0  21850-2 0  9997,2 53818  53.2158 131.5514 0004715  44.9977 315.1398 15.12068949 29240,6908.028,95.234,533.15,526.636,0.0
53818.0,STARLINK-4749,PAYLOAD,2023-03-22 09:42:22,15.12143024,0.0004832,53.216,127.0779,47.7921,312.3482,0.0021484,0.00037364,0.0,0 STARLINK-4749,1 53818U 22114A   23081.40442647  .00037364  00000-0  21484-2 0  9994,2 53818  53.2160 127.0779 0004832  47.7921 312.3482 15.12143024 28752,6907.803,95.229,533.006,526.33,0.0
53818.0,STARLINK-4749,PAYLOAD,2023-03-23 09:29:59,15.12209225,0.0004842,53.2163,122.604,51.3611,308.7815,0.0016999,0.00029524,0.0,0 STARLINK-4749,1 53818U 22114A   23082.39583047  .00029524  00000-0  16999-2 0  9997,2 53818  53.2163 122.6040 0004842  51.3611 308.7815 15.12209225 29548,6907.601,95.225,532.811,526.121,0.0
53818.0,STARLINK-4749,PAYLOAD,2023-03-23 19:01:01,15.12250849,0.0004836,53.216,120.8137,52.7514,307.392,0.0026917,0.00047094,0.0,0 STARLINK-4749,1 53818U 22114A   23082.79237866  .00047094  00000-0  26917-2 0  9999,2 53818  53.2160 120.8137 0004836  52.7514 307.3920 15.12250849 28967,6907.474,95.222,532.68,525.999,0.0
53818.0,STARLINK-4749,PAYLOAD,2023-03-24 06:07:12,15.12356527,0.0004802,53.2164,118.726,55.5658,304.5789,0.0071844,0.00128008,0.0,0 STARLINK-4749,1 53818U 22114A   23083.25500325  .00128008  00000-0  71844-2 0  9998,2 53818  53.2164 118.7260 0004802  55.5658 304.5789 15.12356527 29038,6907.153,95.216,532.334,525.701,0.0
53818.0,STARLINK-4749,PAYLOAD,2023-03-24 09:17:32,15.12380384,0.0004841,53.2161,118.1297,53.2473,306.8964,0.0076107,0.00135861,0.0,0 STARLINK-4749,1 53818U 22114A   23083.38717731  .00135861  00000-0  76107-2 0  9995,2 53818  53.2161 118.1297 0004841  53.2473 306.8964 15.12380384 29692,6907.08,95.214,532.289,525.601,0.0
53818.0,STARLINK-4749,PAYLOAD,2023-03-24 18:48:31,15.12353908,0.0004968,53.2165,116.3419,55.2811,304.865,0.0028225,0.00049557,0.0,0 STARLINK-4749,1 53818U 22114A   23083.78370117  .00049557  00000-0  28225-2 0  9996,2 53818  53.2165 116.3419 0004968  55.2811 304.8650 15.12353908 29119,6907.161,95.216,532.457,525.594,0.0
53818.0,STARLINK-4749,PAYLOAD,2023-03-25 01:09:11,15.12358257,0.0004989,53.216,115.1466,54.0904,306.0552,0.0016439,0.00028658,0.0,0 STARLINK-4749,1 53818U 22114A   23084.04804583  .00028658  00000-0  16439-2 0  9998,2 53818  53.2160 115.1466 0004989  54.0904 306.0552 15.12358257 29157,6907.147,95.216,532.458,525.566,0.0
53818.0,STARLINK-4749,PAYLOAD,2023-03-25 18:35:58,15.12403459,0.0004997,53.2156,111.8654,56.6934,303.4538,0.0017289,0.000302,0.0,0 STARLINK-4749,1 53818U 22114A   23084.77497743  .00030200  00000-0  17289-2 0  9994,2 53818  53.2156 111.8654 0004997  56.6934 303.4538 15.12403459 29907,6907.01,95.213,532.326,525.423,0.0
53818.0,STARLINK-4749,PAYLOAD,2023-03-26 04:06:55,15.12422807,0.0005008,53.2155,110.0755,58.0104,302.1376,0.0014852,0.00025899,0.0,0 STARLINK-4749,1 53818U 22114A   23085.17147744  .00025899  00000-0  14852-2 0  9993,2 53818  53.2155 110.0755 0005008  58.0104 302.1376 15.12422807 29328,6906.951,95.211,532.275,525.357,0.0
53818.0,STARLINK-4749,PAYLOAD,2023-03-26 21:33:40,15.12454267,0.0005032,53.2158,106.7944,59.3052,300.8437,0.0014027,0.00024461,0.0,0 STARLINK-4749,1 53818U 22114A   23085.89838317  .00024461  00000-0  14027-2 0  9993,2 53818  53.2158 106.7944 0005032  59.3052 300.8437 15.12454267 30078,6906.855,95.209,532.196,525.244,0.0
53818.0,STARLINK-4749,PAYLOAD,2023-03-27 08:39:46,15.12474555,0.0005088,53.2158,104.7065,60.2027,299.9472,0.0013396,0.00023357,0.0,0 STARLINK-4749,1 53818U 22114A   23086.36095083  .00023357  00000-0  13396-2 0  9992,2 53818  53.2158 104.7065 0005088  60.2027 299.9472 15.12474555 29509,6906.793,95.208,532.172,525.144,0.0
53818.0,STARLINK-4749,PAYLOAD,2023-03-28 08:27:05,15.1252211,0.0005139,53.2158,100.2317,62.7748,297.3769,0.0013778,0.00024066,0.0,0 STARLINK-4749,1 53818U 22114A   23087.35214460  .00024066  00000-0  13778-2 0  9996,2 53818  53.2158 100.2317 0005139  62.7748 297.3769 15.12522110 30294,6906.648,95.205,532.063,524.964,0.0
53818.0,STARLINK-4749,PAYLOAD,2023-03-28 17:58:00,15.12542575,0.0005129,53.216,98.4417,63.8113,296.3408,0.0014476,0.00025319,0.0,0 STARLINK-4749,1 53818U 22114A   23087.74861325  .00025319  00000-0  14476-2 0  9995,2 53818  53.2160  98.4417 0005129  63.8113 296.3408 15.12542575 30356,6906.586,95.204,531.994,524.909,0.0
53818.0,STARLINK-4749,PAYLOAD,2023-03-29 00:18:36,15.12558659,0.0005145,53.2159,97.2482,64.7727,295.38,0.0015825,0.00027729,0.0,0 STARLINK-4749,1 53818U 22114A   23088.01292252  .00027729  00000-0  15825-2 0  9999,2 53818  53.2159  97.2482 0005145  64.7727 295.3800 15.12558659 29759,6906.537,95.203,531.956,524.849,0.0
53818.0,STARLINK-4749,PAYLOAD,2023-03-29 06:39:12,15.12572533,0.0005176,53.2159,96.055,65.147,295.0062,0.0015954,0.00027969,0.0,0 STARLINK-4749,1 53818U 22114A   23088.27722930  .00027969  00000-0  15954-2 0  9997,2 53818  53.2159  96.0550 0005176  65.1470 295.0062 15.12572533 30437,6906.495,95.202,531.935,524.785,0.0
